IRIDIUM 126             
1 42809U 17039G   25070.02521931  .00000011  00000+0 -32764-5 0  9999
2 42809  86.4043 187.1881 0002357  95.0931 265.0534 14.34218321403571
IRIDIUM 124             
1 42810U 17039H   25069.64506321  .00000639  00000+0  18393-3 0  9998
2 42810  86.4482 124.1877 0002118  89.6727 270.4717 14.43281236408251
IRIDIUM 128             
1 42811U 17039J   25069.87641880  .00000276  00000+0  91654-4 0  9993
2 42811  86.3984 218.7178 0001935  86.3790 273.7627 14.34219043403575
IRIDIUM 121             
1 42812U 17039K   25070.04424685  .00000006  00000+0 -50039-5 0  9992
2 42812  86.4046 187.2047 0001931  97.9529 262.1886 14.34217678403565
IRIDIUM 133             
1 42955U 17061A   25070.11743774  .00000142  00000+0  43667-4 0  9994
2 42955  86.3987 218.7233 0002144  90.0763 270.0679 14.34216979388400
IRIDIUM 100             
1 42956U 17061B   25070.11109472  .00000249  00000+0  82023-4 0  9993
2 42956  86.3986 218.6556 0002068  90.6761 269.4672 14.34218621388429
IRIDIUM 122             
1 42957U 17061C   25069.93984298  .00000523  00000+0  17967-3 0  9998
2 42957  86.3985 218.7260 0002293  89.7090 270.4369 14.34218902388388
IRIDIUM 129             
1 42958U 17061D   25069.82567918  .00000186  00000+0  59187-4 0  9999
2 42958  86.3986 218.8357 0002293 103.4814 256.6637 14.34218633388381
